SL-16 R/B               
1 22566U 93016B   26055.49261239  .00000135  00000+0  93749-4 0  9998
2 22566  71.0045 242.9005 0010937 332.4454  27.6087 14.15300574700307
COSMOS 2242             
1 22626U 93024A   26055.59754758  .00001744  00000+0  15097-3 0  9994
2 22626  82.5166 279.2414 0016257 354.8680   5.2372 14.96489290778432
SL-16 R/B               
1 22803U 93059B   26055.34879309  .00000240  00000+0  14261-3 0  9994
2 22803  70.9902  39.2587 0019044 234.8805 125.0534 14.17228725677645
ARIANE 40 R/B           
1 22830U 93061H   26055.43074795  .00000198  00000+0  88411-4 0  9994
2 22830  98.4946 124.5783 0009912 328.5070  31.5520 14.32853116692202
COSMOS 2278             
1 23087U 94023A   26055.51381156  .00000391  00000+0  22889-3 0  9990
2 23087  71.0525 202.6615 0007331  39.3924 320.7730 14.14369459642941
SL-16 R/B               
1 23088U 94023B   26055.49554193  .00000131  00000+0  92189-4 0  9994
2 23088  70.9990  98.5985 0005210 298.0857  61.9739 14.15012394644221
SL-16 R/B               
1 23343U 94074B   26055.55386108  .00000464  00000+0  68810-4 0  9993
2 23343  97.7129  86.9026 0005125 262.6094 249.9641 14.79390593685302
SL-16 R/B               
1 23405U 94077B   26055.34096129 -.00000077  00000+0 -14626-4 0  9991
2 23405  70.9845  20.5698 0003736 227.1284 132.9525 14.15564055614345
ARIANE 40+ R/B          
1 23561U 95021B   26055.63341120  .00000280  00000+0  10332-3 0  9993
2 23561  98.4525 127.2911 0007036 171.8121 357.1237 14.39761861617369
SL-16 R/B               
1 23705U 95058B   26055.48862047 -.00000230  00000+0 -93367-4 0  9999
2 23705  71.0204 207.9684 0011202 149.2102 210.9681 14.15494214565989
SL-16 R/B               
1 24298U 96051B   26055.49748447  .00000101  00000+0  81255-4 0  9997
2 24298  70.7586 203.1600 0016266 167.0875 193.0664 14.12411863519787
ORBVIEW 2 (SEASTAR)     
1 24883U 97037A   26055.45325492  .00000296  00000+0  11906-3 0  9999
2 24883  98.8544 219.4161 0003207  98.5686 261.5862 14.35483347506578
